#dP2021  3 21 12  0  0.00000000      96 __u+U ITR00 EXT  IAC
## 2150  43200.00000000   900.00000000 59294 0.5000000000000
+  117   C06C07C08C09C10C11C12C13C14C16C19C20C21C22C23C24C25
+        C26C27C28C29C30C32C33C34C35C36C37C38C39C40C41C42C43
+        C44C45C46E01E02E03E04E05E07E08E09E11E12E13E14E15E18
+        E19E21E24E25E26E27E30E31E33E36G01G02G03G04G05G06G07
+        G08G09G10G11G12G13G14G15G16G17G18G19G20G21G22G23G24
+        G25G26G27G28G29G30G31G32J01J02J03R01R02R03R04R05R07
+        R08R09R11R12R13R14R15R16R17R18R19R20R21R22R24  0  0
++        11  9 11  9 10 11  9 10 11 13  8  9  8  7 10  8 10
++         9  8  9  8  8  8  9  8  8  8  7 11  9 11 10 10 10
++        10 10  8  7  8  8  7  7  9  7  8  7  7  9  7  8  8
++         8  9  8  6  9  8  7  9  8  9  7  8  8  7  9  7  6
++         7  7  8  7  7  9  7  9  7  8  8  8  8  8  8  8  9
++         7  7  7  7  7  7  7  7 11 10 14 10  9  8  8  8  8
++         8  8  8  8  9  7  7  9  9  9  9  9  7  9  7  0  0
%c M  cc GPS ccc cccc cccc cccc cccc ccccc ccccc ccccc ccccc
%c cc cc ccc ccc cccc cccc cccc cccc ccccc ccccc ccccc ccccc
%f  0.0000000  0.000000000  0.00000000000  0.000000000000000
%f  0.0000000  0.000000000  0.00000000000  0.000000000000000
%i    0    0    0    0      0      0      0      0         0
%i    0    0    0    0      0      0      0      0         0
/* IAC                                ULTRA-RAPID PREDICTION
/* S/V CLOCKS ARE ALIGNED TO GNSS TIME                      
/* G:C1WC2W R:C1PC2P E:C1XC5X C:C2IC6I J:C1CC2S             
/* PCV:IGS14_2134 OL/AL:FES2004  NONE     YN ORB:CoN CLK:CoN
*  2021 03 21 20  0  0.00000000
PC06  -7007.862592  30420.040997  29011.462591    199.399037
PC07 -22281.978629  23590.924072 -26912.410354    -40.437153
PC08 -20605.624913  36556.592428   -167.781699   -898.323460
PC09   4488.817691  38071.884471  18317.692025    652.220369
PC10  -6270.870624  26496.224724 -32052.821367    -68.235111
PC11  -4044.687647  21346.523904 -17430.826373   -855.437541
PC12 -14744.500278   4287.204930 -23265.902435    882.305995
PC13 -10602.735499  38378.333694  13598.037175    189.599388
PC14 -11574.833376  13574.973378  21502.267634    268.060152
PC16  -2886.635587  32617.067604  26787.224456   -745.146849
PC19    338.536720 -15923.995472 -22884.544349    769.993608
PC20  19378.475692  -9708.943650 -17540.578531   -934.586303
PC21 -27754.601625  -2660.524282   1449.899871   -897.341409
PC22 -19466.461492 -13127.926641 -15096.221196   -926.732892
PC23   8843.985743  14434.929896 -22186.013330   -879.249493
PC24 -19711.158402  19010.048059   5282.783504   -789.409764
PC25  -6633.721717  23986.804602 -12610.779673   -944.884865
PC26 -20095.491950   4533.237991  18798.388927    932.177181
PC27  17722.054284   6249.940148  20620.597489    502.429895
PC28  14384.410864  22740.457718   7399.243979    -95.694627
PC29  -3595.642926 -25749.598065  10121.992249    368.107944
PC30  10487.815402 -13793.386698  21865.247320    454.163315
PC32  27754.016751   2488.920985  -1389.364869   -918.087282
PC33   -388.330537  15961.827230  22896.769357   -945.305266
PC34 -10093.923189  14493.170071 -21619.621461   -713.796370
PC35 -15043.481118 -22381.644812  -7100.925785   -363.978170
PC36   7485.025796 -23894.848183  12340.360632   -739.149523
PC37  19944.509598  -3257.970920 -19241.536168   -880.305360
PC38 -18240.234208  37847.131602   2840.420466    137.267844
PC39   -162.113781  32937.665708  26417.411376     29.590890
PC40 -10245.458549  21509.949175 -34808.288681    143.255007
PC41  19221.512727  13242.754190  15350.486781   -934.142556
PC42 -19974.522019   9419.318518  17116.195208   -937.643325
PC43   3061.894907  25686.584804 -10509.490584   -649.887588
PC44 -18050.403317  -5757.927350 -20481.708413     97.566600
PC45  -8828.905611 -14297.004789  22281.085553    392.845764
PC46  19351.997776 -19635.154263  -4454.693420    352.417425
PE01   3378.932424 -18547.326946  22817.714152  -1070.379168
PE02  -3218.397875  18512.729558 -22872.435481    206.632981
PE03   7783.592077  21525.875987  18762.227761   -411.427384
PE04 -23097.002434 -18311.469483  -2713.342349   -733.711052
PE05 -12315.888291  12149.870668  24022.558080   -295.183948
PE07  25027.447663   4220.307209 -15215.822597   -515.676428
PE08  23338.018767  18033.254771   2442.627408   6029.693203
PE09 -24960.571947  -4032.249970  15408.888642   5727.155335
PE11 -16310.451080   3142.190470 -24504.513442   6181.364299
PE12 -11439.677430 -19034.976180 -19551.894611   5298.870789
PE13  16226.015538  -2663.790093  24620.275365    413.886228
PE14  12958.368264  -7615.969787  18005.045644  -1369.740774
PE15  11462.266925  18990.770097  19615.925987    823.491161
PE18 -19047.477266   8939.749431 -24778.539877  -1497.972294
PE19  -5583.490334 -20968.700748 -20123.688219    232.582047
PE21  21321.088577 -17758.591426  10310.525757   -654.897765
PE24 -27475.468589   5945.809240   9209.311373   -805.027491
PE25 -21438.597221  17697.787903 -10154.253070   -529.015415
PE26  11309.524435 -23213.845923  14474.305591   2015.481962
PE27  27549.515749  -6616.346041  -8594.808363      5.569885
PE30  16806.092137   9059.774769 -22638.238903   3088.478390
PE31 -17537.851945  -8351.990875  22334.507616   -479.389987
PE33     51.011521 -29433.030138  -3059.791035   -466.750977
PE36 -11420.842011  22754.873625 -15102.198328   -183.051671
PG01  13765.061770 -19297.411746  11371.624388    735.844525
PG02 -14427.219749  -3634.928739 -21346.491732   -588.327266
PG03  20109.256900 -12985.950506 -11468.304607   -114.509890
PG04  11436.056292 -10035.224543 -21765.982081   -187.522263
PG05 -25924.399118   3283.564505  -5436.721924    -36.858752
PG06  -8007.587362 -16959.573175 -18720.138542      2.104518
PG07   6122.551798 -25501.116985   2148.942879     97.360442
PG08  17087.846922  -2526.287325  20256.634687    -14.590447
PG09    790.547309 -18496.622605 -19092.541518   -332.933075
PG10   8554.224483  13174.668389  21565.320350    -85.775581
PG11  11155.354632 -15478.427179  18175.669115      7.562612
PG12 -23005.383393   9939.184822  -8817.628803    -17.144506
PG13 -19532.094245  -8022.417301  16055.891623    110.537502
PG14  -6592.153818 -14123.677481  21496.828250     99.636774
PG15 -17032.889032   4806.174174  19542.387071   -161.567074
PG16  25657.280503   1556.756846  -7829.793506   -297.532860
PG17 -12727.305086 -22347.860616   7058.874955    413.492460
PG18  -4347.235184  25639.220090   5243.000529    350.961004
PG19 -17366.672241 -20069.766827  -2253.912263    -23.323418
PG20  -7676.290317  17524.196563  18249.105382    523.977062
PG21  15723.883264 -12079.812863  18174.846911    104.949604
PG22  24419.448370  -9975.587643  -1889.005692   -655.514633
PG23  -4124.783284  16043.934826  20731.246840    116.873712
PG24 -15026.528959  14920.351092  15546.578077      0.778958
PG25 -11254.783071  15845.664168 -18238.655498    103.337298
PG26  20299.684998   6353.487711 -16125.821904     61.288404
PG27  21221.425523   9533.366912  12985.151334    -98.286813
PG28  -8791.031354 -13570.401298  21595.560951    598.729049
PG29  -1334.181181  18378.830418 -19156.498994   -315.996910
PG30  -2915.463987 -22731.409835  13279.531632   -401.736769
PG31  10179.763452  14252.999284 -19911.538820   -106.949685
PG32  15339.834077  21176.979051   5251.754896     21.535652
PJ01 -28408.373215  21825.121121  27185.864161   -357.130885
PJ02 -35959.432043  21273.687101  -1110.263148      3.805364
PJ03 -20177.545957  23788.359506 -23772.362301     -2.071378
PR01 -16687.049477   4348.154364  18807.539150     76.723769
PR02   4552.262876  12425.538354  21862.909721    471.682585
PR03  20104.040039  11855.285327  10399.619801     32.800734
PR04  24135.754897   4668.965818  -6788.028938     78.906193
PR05  14737.686232  -5041.174663 -20193.219316     68.557677
PR07 -20470.565937 -11649.157157  -9699.304629    -42.557204
PR08 -24126.704417  -4518.269864   6961.588219    -58.064358
PR09   6891.076069 -17666.400343  17037.079760    -15.983220
PR11 -18670.439059   7006.454577  15917.591893      2.052951
PR12 -18614.115788  17392.165449  -1002.575659    214.444746
PR13  -7502.124591  17746.539133 -16736.120346    -52.301240
PR14   8393.086079   7337.028124 -22936.964726     62.274956
PR15  18965.056650  -7000.308971 -15544.935535    104.800528
PR16  17909.961121 -18156.191560   1940.449154    -12.806304
PR17   9690.340283  20305.228678  12000.634043    409.926949
PR18  11232.307303   5060.965368  22361.967664     70.567460
PR19   7456.336260 -12098.695750  21183.034754   -136.621441
PR20  -1537.307324 -24727.296257   5973.623273    -45.728666
PR21  -9884.832836 -19598.633927 -13008.928297   -196.073200
PR22 -11032.183155  -3755.459684 -22687.709629   -103.777610
PR24   2157.839075  24881.139001  -5160.016536     35.873662
EOF
